[{"OBJECT_NAME":"ONEWEB-0448","OBJECT_ID":"2022-012V","EPOCH":"2026-03-09T21:51:43.015392","MEAN_MOTION":13.10373074,"ECCENTRICITY":0.00018227,"INCLINATION":87.8772,"RA_OF_ASC_NODE":56.0502,"ARG_OF_PERICENTER":88.1715,"MEAN_ANOMALY":271.9621,"EPHEMERIS_TYPE":0,"CLASSIFICATION_TYPE":"U","NORAD_CAT_ID":51641,"ELEMENT_SET_NO":999,"REV_AT_EPOCH":19629,"BSTAR":-0.002076271,"MEAN_MOTION_DOT":-7.12e-6,"MEAN_MOTION_DDOT":0},{"OBJECT_NAME":"THORAD DELTA 1 DEB","OBJECT_ID":"1974-089DG","EPOCH":"2026-03-09T09:33:56.798784","MEAN_MOTION":12.71143314,"ECCENTRICITY":0.02235213,"INCLINATION":101.9037,"RA_OF_ASC_NODE":16.8157,"ARG_OF_PERICENTER":326.2951,"MEAN_ANOMALY":151.7099,"EPHEMERIS_TYPE":0,"CLASSIFICATION_TYPE":"U","NORAD_CAT_ID":8593,"ELEMENT_SET_NO":999,"REV_AT_EPOCH":37941,"BSTAR":0.00014008501,"MEAN_MOTION_DOT":-1.8e-7,"MEAN_MOTION_DDOT":0}]
